ONEWEB-0210             
1 48787U 21045W   24235.47581910 -.00000043  00000+0 -14944-3 0  9990
2 48787  87.9045  31.2484 0000864  83.9454 276.1774 13.15548233157059
ONEWEB-0214             
1 48788U 21045X   24235.48532733  .00000068  00000+0  14583-3 0  9995
2 48788  87.9044  31.2356 0001258  79.0250 281.1022 13.15548750157028
ONEWEB-0221             
1 48789U 21045Y   24235.49166482  .00000109  00000+0  25540-3 0  9992
2 48789  87.9049  31.2541 0001570 100.4329 259.6979 13.15549953157110
ONEWEB-0213             
1 48790U 21045Z   24235.48057024  .00000000  00000+0 -33166-4 0  9999
2 48790  87.9047  31.2687 0001407 100.5506 259.5783 13.15548575157175
ONEWEB-0212             
1 48791U 21045AA  24235.45760043 -.00000065  00000+0 -20597-3 0  9994
2 48791  87.9050  31.2572 0001823  94.4737 265.6601 13.15548577157160
ONEWEB-0227             
1 48792U 21045AB  24235.45680558 -.00000109  00000+0 -32384-3 0  9993
2 48792  87.9050  31.2724 0001640  97.3833 262.7484 13.15548314157117
ONEWEB-0226             
1 48793U 21045AC  24235.45046841 -.00000036  00000+0 -13090-3 0  9997
2 48793  87.9049  31.2797 0001188  91.8592 268.2674 13.15548070157081
ONEWEB-0224             
1 48794U 21045AD  24235.49008203  .00000075  00000+0  16459-3 0  9995
2 48794  87.9053  31.2958 0002150 124.9550 235.1783 13.15548344157019
