<?xml version="1.0" encoding="UTF-8"?>
<ndm xmlns:xsi="http://www.w3.org/2001/XMLSchema-instance" xsi:noNamespaceSchemaLocation="https://sanaregistry.org/r/ndmxml_unqualified/ndmxml-2.0.0-master-2.0.xsd">
<omm id="CCSDS_OMM_VERS" version="2.0">
<header><CREATION_DATE/><ORIGINATOR/></header><body><segment><metadata><OBJECT_NAME>ONEWEB-0210</OBJECT_NAME><OBJECT_ID>2021-045W</OBJECT_ID><CENTER_NAME>EARTH</CENTER_NAME><REF_FRAME>TEME</REF_FRAME><TIME_SYSTEM>UTC</TIME_SYSTEM><MEAN_ELEMENT_THEORY>SGP4</MEAN_ELEMENT_THEORY></metadata><data><meanElements><EPOCH>2024-08-22T11:25:10.770240</EPOCH><MEAN_MOTION>13.15548233</MEAN_MOTION><ECCENTRICITY>.0000864</ECCENTRICITY><INCLINATION>87.9045</INCLINATION><RA_OF_ASC_NODE>31.2484</RA_OF_ASC_NODE><ARG_OF_PERICENTER>83.9454</ARG_OF_PERICENTER><MEAN_ANOMALY>276.1774</MEAN_ANOMALY></meanElements><tleParameters><EPHEMERIS_TYPE>0</EPHEMERIS_TYPE><CLASSIFICATION_TYPE>U</CLASSIFICATION_TYPE><NORAD_CAT_ID>48787</NORAD_CAT_ID><ELEMENT_SET_NO>999</ELEMENT_SET_NO><REV_AT_EPOCH>15705</REV_AT_EPOCH><BSTAR>-.14944E-3</BSTAR><MEAN_MOTION_DOT>-.43E-6</MEAN_MOTION_DOT><MEAN_MOTION_DDOT>0</MEAN_MOTION_DDOT></tleParameters></data></segment></body></omm>
<omm id="CCSDS_OMM_VERS" version="2.0">
<header><CREATION_DATE/><ORIGINATOR/></header><body><segment><metadata><OBJECT_NAME>ONEWEB-0214</OBJECT_NAME><OBJECT_ID>2021-045X</OBJECT_ID><CENTER_NAME>EARTH</CENTER_NAME><REF_FRAME>TEME</REF_FRAME><TIME_SYSTEM>UTC</TIME_SYSTEM><MEAN_ELEMENT_THEORY>SGP4</MEAN_ELEMENT_THEORY></metadata><data><meanElements><EPOCH>2024-08-22T11:38:52.281312</EPOCH><MEAN_MOTION>13.15548750</MEAN_MOTION><ECCENTRICITY>.0001258</ECCENTRICITY><INCLINATION>87.9044</INCLINATION><RA_OF_ASC_NODE>31.2356</RA_OF_ASC_NODE><ARG_OF_PERICENTER>79.0250</ARG_OF_PERICENTER><MEAN_ANOMALY>281.1022</MEAN_ANOMALY></meanElements><tleParameters><EPHEMERIS_TYPE>0</EPHEMERIS_TYPE><CLASSIFICATION_TYPE>U</CLASSIFICATION_TYPE><NORAD_CAT_ID>48788</NORAD_CAT_ID><ELEMENT_SET_NO>999</ELEMENT_SET_NO><REV_AT_EPOCH>15702</REV_AT_EPOCH><BSTAR>.14583E-3</BSTAR><MEAN_MOTION_DOT>.68E-6</MEAN_MOTION_DOT><MEAN_MOTION_DDOT>0</MEAN_MOTION_DDOT></tleParameters></data></segment></body></omm>
<omm id="CCSDS_OMM_VERS" version="2.0">
<header><CREATION_DATE/><ORIGINATOR/></header><body><segment><metadata><OBJECT_NAME>ONEWEB-0221</OBJECT_NAME><OBJECT_ID>2021-045Y</OBJECT_ID><CENTER_NAME>EARTH</CENTER_NAME><REF_FRAME>TEME</REF_FRAME><TIME_SYSTEM>UTC</TIME_SYSTEM><MEAN_ELEMENT_THEORY>SGP4</MEAN_ELEMENT_THEORY></metadata><data><meanElements><EPOCH>2024-08-22T11:47:59.840448</EPOCH><MEAN_MOTION>13.15549953</MEAN_MOTION><ECCENTRICITY>.000157</ECCENTRICITY><INCLINATION>87.9049</INCLINATION><RA_OF_ASC_NODE>31.2541</RA_OF_ASC_NODE><ARG_OF_PERICENTER>100.4329</ARG_OF_PERICENTER><MEAN_ANOMALY>259.6979</MEAN_ANOMALY></meanElements><tleParameters><EPHEMERIS_TYPE>0</EPHEMERIS_TYPE><CLASSIFICATION_TYPE>U</CLASSIFICATION_TYPE><NORAD_CAT_ID>48789</NORAD_CAT_ID><ELEMENT_SET_NO>999</ELEMENT_SET_NO><REV_AT_EPOCH>15711</REV_AT_EPOCH><BSTAR>.2554E-3</BSTAR><MEAN_MOTION_DOT>.109E-5</MEAN_MOTION_DOT><MEAN_MOTION_DDOT>0</MEAN_MOTION_DDOT></tleParameters></data></segment></body></omm>
<omm id="CCSDS_OMM_VERS" version="2.0">
<header><CREATION_DATE/><ORIGINATOR/></header><body><segment><metadata><OBJECT_NAME>ONEWEB-0213</OBJECT_NAME><OBJECT_ID>2021-045Z</OBJECT_ID><CENTER_NAME>EARTH</CENTER_NAME><REF_FRAME>TEME</REF_FRAME><TIME_SYSTEM>UTC</TIME_SYSTEM><MEAN_ELEMENT_THEORY>SGP4</MEAN_ELEMENT_THEORY></metadata><data><meanElements><EPOCH>2024-08-22T11:32:01.268736</EPOCH><MEAN_MOTION>13.15548575</MEAN_MOTION><ECCENTRICITY>.0001407</ECCENTRICITY><INCLINATION>87.9047</INCLINATION><RA_OF_ASC_NODE>31.2687</RA_OF_ASC_NODE><ARG_OF_PERICENTER>100.5506</ARG_OF_PERICENTER><MEAN_ANOMALY>259.5783</MEAN_ANOMALY></meanElements><tleParameters><EPHEMERIS_TYPE>0</EPHEMERIS_TYPE><CLASSIFICATION_TYPE>U</CLASSIFICATION_TYPE><NORAD_CAT_ID>48790</NORAD_CAT_ID><ELEMENT_SET_NO>999</ELEMENT_SET_NO><REV_AT_EPOCH>15717</REV_AT_EPOCH><BSTAR>-.33166E-4</BSTAR><MEAN_MOTION_DOT>0</MEAN_MOTION_DOT><MEAN_MOTION_DDOT>0</MEAN_MOTION_DDOT></tleParameters></data></segment></body></omm>
<omm id="CCSDS_OMM_VERS" version="2.0">
<header><CREATION_DATE/><ORIGINATOR/></header><body><segment><metadata><OBJECT_NAME>ONEWEB-0212</OBJECT_NAME><OBJECT_ID>2021-045AA</OBJECT_ID><CENTER_NAME>EARTH</CENTER_NAME><REF_FRAME>TEME</REF_FRAME><TIME_SYSTEM>UTC</TIME_SYSTEM><MEAN_ELEMENT_THEORY>SGP4</MEAN_ELEMENT_THEORY></metadata><data><meanElements><EPOCH>2024-08-22T10:58:56.677152</EPOCH><MEAN_MOTION>13.15548577</MEAN_MOTION><ECCENTRICITY>.0001823</ECCENTRICITY><INCLINATION>87.9050</INCLINATION><RA_OF_ASC_NODE>31.2572</RA_OF_ASC_NODE><ARG_OF_PERICENTER>94.4737</ARG_OF_PERICENTER><MEAN_ANOMALY>265.6601</MEAN_ANOMALY></meanElements><tleParameters><EPHEMERIS_TYPE>0</EPHEMERIS_TYPE><CLASSIFICATION_TYPE>U</CLASSIFICATION_TYPE><NORAD_CAT_ID>48791</NORAD_CAT_ID><ELEMENT_SET_NO>999</ELEMENT_SET_NO><REV_AT_EPOCH>15716</REV_AT_EPOCH><BSTAR>-.20597E-3</BSTAR><MEAN_MOTION_DOT>-.65E-6</MEAN_MOTION_DOT><MEAN_MOTION_DDOT>0</MEAN_MOTION_DDOT></tleParameters></data></segment></body></omm>
<omm id="CCSDS_OMM_VERS" version="2.0">
<header><CREATION_DATE/><ORIGINATOR/></header><body><segment><metadata><OBJECT_NAME>ONEWEB-0227</OBJECT_NAME><OBJECT_ID>2021-045AB</OBJECT_ID><CENTER_NAME>EARTH</CENTER_NAME><REF_FRAME>TEME</REF_FRAME><TIME_SYSTEM>UTC</TIME_SYSTEM><MEAN_ELEMENT_THEORY>SGP4</MEAN_ELEMENT_THEORY></metadata><data><meanElements><EPOCH>2024-08-22T10:57:48.002112</EPOCH><MEAN_MOTION>13.15548314</MEAN_MOTION><ECCENTRICITY>.000164</ECCENTRICITY><INCLINATION>87.9050</INCLINATION><RA_OF_ASC_NODE>31.2724</RA_OF_ASC_NODE><ARG_OF_PERICENTER>97.3833</ARG_OF_PERICENTER><MEAN_ANOMALY>262.7484</MEAN_ANOMALY></meanElements><tleParameters><EPHEMERIS_TYPE>0</EPHEMERIS_TYPE><CLASSIFICATION_TYPE>U</CLASSIFICATION_TYPE><NORAD_CAT_ID>48792</NORAD_CAT_ID><ELEMENT_SET_NO>999</ELEMENT_SET_NO><REV_AT_EPOCH>15711</REV_AT_EPOCH><BSTAR>-.32384E-3</BSTAR><MEAN_MOTION_DOT>-.109E-5</MEAN_MOTION_DOT><MEAN_MOTION_DDOT>0</MEAN_MOTION_DDOT></tleParameters></data></segment></body></omm>
<omm id="CCSDS_OMM_VERS" version="2.0">
<header><CREATION_DATE/><ORIGINATOR/></header><body><segment><metadata><OBJECT_NAME>ONEWEB-0226</OBJECT_NAME><OBJECT_ID>2021-045AC</OBJECT_ID><CENTER_NAME>EARTH</CENTER_NAME><REF_FRAME>TEME</REF_FRAME><TIME_SYSTEM>UTC</TIME_SYSTEM><MEAN_ELEMENT_THEORY>SGP4</MEAN_ELEMENT_THEORY></metadata><data><meanElements><EPOCH>2024-08-22T10:48:40.470624</EPOCH><MEAN_MOTION>13.15548070</MEAN_MOTION><ECCENTRICITY>.0001188</ECCENTRICITY><INCLINATION>87.9049</INCLINATION><RA_OF_ASC_NODE>31.2797</RA_OF_ASC_NODE><ARG_OF_PERICENTER>91.8592</ARG_OF_PERICENTER><MEAN_ANOMALY>268.2674</MEAN_ANOMALY></meanElements><tleParameters><EPHEMERIS_TYPE>0</EPHEMERIS_TYPE><CLASSIFICATION_TYPE>U</CLASSIFICATION_TYPE><NORAD_CAT_ID>48793</NORAD_CAT_ID><ELEMENT_SET_NO>999</ELEMENT_SET_NO><REV_AT_EPOCH>15708</REV_AT_EPOCH><BSTAR>-.1309E-3</BSTAR><MEAN_MOTION_DOT>-.36E-6</MEAN_MOTION_DOT><MEAN_MOTION_DDOT>0</MEAN_MOTION_DDOT></tleParameters></data></segment></body></omm>
<omm id="CCSDS_OMM_VERS" version="2.0">
<header><CREATION_DATE/><ORIGINATOR/></header><body><segment><metadata><OBJECT_NAME>ONEWEB-0224</OBJECT_NAME><OBJECT_ID>2021-045AD</OBJECT_ID><CENTER_NAME>EARTH</CENTER_NAME><REF_FRAME>TEME</REF_FRAME><TIME_SYSTEM>UTC</TIME_SYSTEM><MEAN_ELEMENT_THEORY>SGP4</MEAN_ELEMENT_THEORY></metadata><data><meanElements><EPOCH>2024-08-22T11:45:43.087392</EPOCH><MEAN_MOTION>13.15548344</MEAN_MOTION><ECCENTRICITY>.000215</ECCENTRICITY><INCLINATION>87.9053</INCLINATION><RA_OF_ASC_NODE>31.2958</RA_OF_ASC_NODE><ARG_OF_PERICENTER>124.9550</ARG_OF_PERICENTER><MEAN_ANOMALY>235.1783</MEAN_ANOMALY></meanElements><tleParameters><EPHEMERIS_TYPE>0</EPHEMERIS_TYPE><CLASSIFICATION_TYPE>U</CLASSIFICATION_TYPE><NORAD_CAT_ID>48794</NORAD_CAT_ID><ELEMENT_SET_NO>999</ELEMENT_SET_NO><REV_AT_EPOCH>15701</REV_AT_EPOCH><BSTAR>.16459E-3</BSTAR><MEAN_MOTION_DOT>.75E-6</MEAN_MOTION_DOT><MEAN_MOTION_DDOT>0</MEAN_MOTION_DDOT></tleParameters></data></segment></body></omm>

</ndm>
